0 GLOBALSTAR M014
1 25306U 98023A   13282.14573956 -.00000069  00000-0  15449-3 0  5420
2 25306 051.9811 156.1605 0001731 068.6076 100.7104 11.65385118693439
0 GLOBALSTAR M014
1 25306U 98023A   13283.75530399 -.00000045  00000-0  60069-3 0  5435
2 25306 051.9810 152.0915 0001756 071.0383 013.9844 11.65384953693626
0 GLOBALSTAR M014
1 25306U 98023A   13285.81276400 -.00000032  00000-0  86195-3 0  5450
2 25306 051.9807 146.8899 0001773 075.2845 005.3615 11.65385071693861
0 GLOBALSTAR M014
1 25306U 98023A   13287.12297216 -.00000041  00000-0  67571-3 0  5462
2 25306 051.9805 143.5776 0001794 076.5653 103.3179 11.65385336694017
0 GLOBALSTAR M014
1 25306U 98023A   13288.46967258 -.00000060  00000-0  32957-3 0  5472
2 25306 051.9804 140.1728 0001774 077.8736 354.4144 11.65385657694174
0 GLOBALSTAR M014
1 25306U 98023A   13289.48814021 -.00000077  00000-0  11656-4 0  5487
2 25306 051.9804 137.5979 0001779 079.8263 307.2001 11.65385859694299
0 GLOBALSTAR M014
1 25306U 98023A   13290.71045832 -.00000094  00000-0 -30929-3 0  5495
2 25306 051.9805 134.5078 0001804 082.5195 034.8529 11.65386063694433
0 GLOBALSTAR M014
1 25306U 98023A   13291.74138448 -.00000095  00000-0 -33091-3 0  5501
2 25306 051.9806 131.9015 0001804 084.1300 040.2739 11.65386072694559
0 GLOBALSTAR M014
1 25306U 98023A   13292.76790703 -.00000091  00000-0 -26278-3 0  5518
2 25306 051.9807 129.3063 0001812 086.3961 026.5566 11.65386036694678
0 GLOBALSTAR M014
1 25306U 98023A   13293.79750510 -.00000081  00000-0 -70838-4 0  5526
2 25306 051.9809 126.7034 0001806 088.0540 026.3565 11.65385926694791
0 GLOBALSTAR M014
1 25306U 98023A   13295.01144999 -.00000067  00000-0  18791-3 0  5534
2 25306 051.9809 123.6344 0001797 089.2672 080.3459 11.65385794694930
0 GLOBALSTAR M014
1 25306U 98023A   13296.04138767 -.00000056  00000-0  40505-3 0  5541
2 25306 051.9810 121.0305 0001788 091.3098 081.1859 11.65385714695056
